STARLINK-31878          
1 60031U 24111R   25360.42418748 -.00000336  00000+0  79277-6 0  9993
2 60031  53.1606   4.1640 0001307  79.7698 280.3450 15.30193075 88298
STARLINK-32017          
1 60032U 24111S   25360.47707854  .00003400  00000+0  12689-3 0  9993
2 60032  53.1608  55.7587 0002004  79.4486 280.6740 15.30195605 87824
STARLINK-32005          
1 60034U 24111U   25360.59715158 -.00001242  00000+0 -29843-4 0  9999
2 60034  53.1599  55.0652 0000957 102.4514 257.6594 15.30192192 87745
STARLINK-31981          
1 60035U 24111V   25360.55082976 -.00000383  00000+0 -82094-6 0  9995
2 60035  53.1608  55.4866 0001227  78.7186 281.3953 15.30195016 87762
STARLINK-31985          
1 60036U 24111W   25360.48233605  .00000867  00000+0  41412-4 0  9997
2 60036  53.1622  55.7652 0001374  79.4467 280.6688 15.30201422 87764
STARLINK-31918          
1 60037U 24111X   25360.19152906  .00001026  00000+0  46742-4 0  9999
2 60037  53.1605  56.8010 0001016  81.0929 279.0186 15.30210711 87712
STARLINK-11129 [DTC]    
1 60038U 24112A   25360.45157745  .00000276  00000+0  71389-5 0  9998
2 60038  53.1586 267.6383 0001199  93.1054 267.0101 15.69714834 89477
STARLINK-11140 [DTC]    
1 60039U 24112B   25360.44667210  .00000631  00000+0  10065-4 0  9999
2 60039  53.1596 267.6054 0001143  77.2028 282.9118 15.69710128 89473
STARLINK-11122 [DTC]    
1 60040U 24112C   25360.18709196 -.00000977  00000+0 -32051-5 0  9997
2 60040  53.1598 268.8273 0001395  85.2684 274.8493 15.69714037 89434
STARLINK-11149 [DTC]    
1 60041U 24112D   25360.11852184  .00001945  00000+0  20927-4 0  9999
2 60041  53.1598 269.1059 0001194  85.8814 274.2340 15.69693543 89421
STARLINK-11120 [DTC]    
1 60042U 24112E   25359.92260286 -.00001224  00000+0 -52456-5 0  9998
2 60042  53.1590 270.0173 0001263 114.0250 246.0900 15.69712133 89390
STARLINK-11086 [DTC]    
1 60043U 24112F   25360.04503388  .00000086  00000+0  55676-5 0  9997
2 60043  53.1594 269.3574 0001183  92.3283 267.7870 15.69709210 89417
STARLINK-11148 [DTC]    
1 60044U 24112G   25360.16747266  .00002348  00000+0  24248-4 0  9999
2 60044  53.1609 268.6965 0001529  78.0526 282.0663 15.69696218 89431
STARLINK-11116 [DTC]    
1 60045U 24112H   25360.48090535  .00000237  00000+0  68107-5 0  9993
2 60045  53.1604 267.0936 0000898 112.0839 248.0275 15.69713475 89483
STARLINK-11155 [DTC]    
1 60046U 24112J   25360.47600262 -.00002313  00000+0 -14228-4 0  9990
2 60046  53.1594 267.0627 0001158  86.0742 274.0408 15.69717698 89480
STARLINK-11163 [DTC]    
1 60047U 24112K   25360.47109693  .00000125  00000+0  58878-5 0  9990
2 60047  53.1588 267.0270 0001120  91.7377 268.3769 15.69711458 89488
