[{"OBJECT_NAME":"STARLINK-31878","OBJECT_ID":"2024-111R","EPOCH":"2025-12-26T10:10:49.798272","MEAN_MOTION":15.30193075,"ECCENTRICITY":0.00013079,"INCLINATION":53.1606,"RA_OF_ASC_NODE":4.164,"ARG_OF_PERICENTER":79.7698,"MEAN_ANOMALY":280.345,"EPHEMERIS_TYPE":0,"CLASSIFICATION_TYPE":"U","NORAD_CAT_ID":60031,"ELEMENT_SET_NO":999,"REV_AT_EPOCH":8829,"BSTAR":7.92771e-7,"MEAN_MOTION_DOT":-3.36e-6,"MEAN_MOTION_DDOT":0},{"OBJECT_NAME":"STARLINK-32017","OBJECT_ID":"2024-111S","EPOCH":"2025-12-26T11:26:59.585856","MEAN_MOTION":15.30195605,"ECCENTRICITY":0.00020049,"INCLINATION":53.1608,"RA_OF_ASC_NODE":55.7587,"ARG_OF_PERICENTER":79.4486,"MEAN_ANOMALY":280.674,"EPHEMERIS_TYPE":0,"CLASSIFICATION_TYPE":"U","NORAD_CAT_ID":60032,"ELEMENT_SET_NO":999,"REV_AT_EPOCH":8782,"BSTAR":0.00012689113,"MEAN_MOTION_DOT":3.4e-5,"MEAN_MOTION_DDOT":0},{"OBJECT_NAME":"STARLINK-32005","OBJECT_ID":"2024-111U","EPOCH":"2025-12-26T14:19:53.896512","MEAN_MOTION":15.30192192,"ECCENTRICITY":9.573e-5,"INCLINATION":53.1599,"RA_OF_ASC_NODE":55.0652,"ARG_OF_PERICENTER":102.4514,"MEAN_ANOMALY":257.6594,"EPHEMERIS_TYPE":0,"CLASSIFICATION_TYPE":"U","NORAD_CAT_ID":60034,"ELEMENT_SET_NO":999,"REV_AT_EPOCH":8774,"BSTAR":-2.9842881e-5,"MEAN_MOTION_DOT":-1.242e-5,"MEAN_MOTION_DDOT":0},{"OBJECT_NAME":"STARLINK-31981","OBJECT_ID":"2024-111V","EPOCH":"2025-12-26T13:13:11.691264","MEAN_MOTION":15.30195016,"ECCENTRICITY":0.00012276,"INCLINATION":53.1608,"RA_OF_ASC_NODE":55.4866,"ARG_OF_PERICENTER":78.7186,"MEAN_ANOMALY":281.3953,"EPHEMERIS_TYPE":0,"CLASSIFICATION_TYPE":"U","NORAD_CAT_ID":60035,"ELEMENT_SET_NO":999,"REV_AT_EPOCH":8776,"BSTAR":-8.20939e-7,"MEAN_MOTION_DOT":-3.83e-6,"MEAN_MOTION_DDOT":0},{"OBJECT_NAME":"STARLINK-31985","OBJECT_ID":"2024-111W","EPOCH":"2025-12-26T11:34:33.834720","MEAN_MOTION":15.30201422,"ECCENTRICITY":0.0001374,"INCLINATION":53.1622,"RA_OF_ASC_NODE":55.7652,"ARG_OF_PERICENTER":79.4467,"MEAN_ANOMALY":280.6688,"EPHEMERIS_TYPE":0,"CLASSIFICATION_TYPE":"U","NORAD_CAT_ID":60036,"ELEMENT_SET_NO":999,"REV_AT_EPOCH":8776,"BSTAR":4.1412022e-5,"MEAN_MOTION_DOT":8.67e-6,"MEAN_MOTION_DDOT":0},{"OBJECT_NAME":"STARLINK-31918","OBJECT_ID":"2024-111X","EPOCH":"2025-12-26T04:35:48.110784","MEAN_MOTION":15.30210711,"ECCENTRICITY":0.00010162,"INCLINATION":53.1605,"RA_OF_ASC_NODE":56.801,"ARG_OF_PERICENTER":81.0929,"MEAN_ANOMALY":279.0186,"EPHEMERIS_TYPE":0,"CLASSIFICATION_TYPE":"U","NORAD_CAT_ID":60037,"ELEMENT_SET_NO":999,"REV_AT_EPOCH":8771,"BSTAR":4.6742158e-5,"MEAN_MOTION_DOT":1.026e-5,"MEAN_MOTION_DDOT":0},{"OBJECT_NAME":"STARLINK-11129 [DTC]","OBJECT_ID":"2024-112A","EPOCH":"2025-12-26T10:50:16.291680","MEAN_MOTION":15.69714834,"ECCENTRICITY":0.00011994,"INCLINATION":53.1586,"RA_OF_ASC_NODE":267.6383,"ARG_OF_PERICENTER":93.1054,"MEAN_ANOMALY":267.0101,"EPHEMERIS_TYPE":0,"CLASSIFICATION_TYPE":"U","NORAD_CAT_ID":60038,"ELEMENT_SET_NO":999,"REV_AT_EPOCH":8947,"BSTAR":7.138877e-6,"MEAN_MOTION_DOT":2.76e-6,"MEAN_MOTION_DDOT":0},{"OBJECT_NAME":"STARLINK-11140 [DTC]","OBJECT_ID":"2024-112B","EPOCH":"2025-12-26T10:43:12.469440","MEAN_MOTION":15.69710128,"ECCENTRICITY":0.00011433,"INCLINATION":53.1596,"RA_OF_ASC_NODE":267.6054,"ARG_OF_PERICENTER":77.2028,"MEAN_ANOMALY":282.9118,"EPHEMERIS_TYPE":0,"CLASSIFICATION_TYPE":"U","NORAD_CAT_ID":60039,"ELEMENT_SET_NO":999,"REV_AT_EPOCH":8947,"BSTAR":1.0065324e-5,"MEAN_MOTION_DOT":6.31e-6,"MEAN_MOTION_DDOT":0},{"OBJECT_NAME":"STARLINK-11122 [DTC]","OBJECT_ID":"2024-112C","EPOCH":"2025-12-26T04:29:24.745344","MEAN_MOTION":15.69714037,"ECCENTRICITY":0.00013953,"INCLINATION":53.1598,"RA_OF_ASC_NODE":268.8273,"ARG_OF_PERICENTER":85.2684,"MEAN_ANOMALY":274.8493,"EPHEMERIS_TYPE":0,"CLASSIFICATION_TYPE":"U","NORAD_CAT_ID":60040,"ELEMENT_SET_NO":999,"REV_AT_EPOCH":8943,"BSTAR":-3.205092e-6,"MEAN_MOTION_DOT":-9.77e-6,"MEAN_MOTION_DDOT":0},{"OBJECT_NAME":"STARLINK-11149 [DTC]","OBJECT_ID":"2024-112D","EPOCH":"2025-12-26T02:50:40.286976","MEAN_MOTION":15.69693543,"ECCENTRICITY":0.00011945,"INCLINATION":53.1598,"RA_OF_ASC_NODE":269.1059,"ARG_OF_PERICENTER":85.8814,"MEAN_ANOMALY":274.234,"EPHEMERIS_TYPE":0,"CLASSIFICATION_TYPE":"U","NORAD_CAT_ID":60041,"ELEMENT_SET_NO":999,"REV_AT_EPOCH":8942,"BSTAR":2.0926777e-5,"MEAN_MOTION_DOT":1.945e-5,"MEAN_MOTION_DDOT":0},{"OBJECT_NAME":"STARLINK-11120 [DTC]","OBJECT_ID":"2024-112E","EPOCH":"2025-12-25T22:08:32.887104","MEAN_MOTION":15.69712133,"ECCENTRICITY":0.0001263,"INCLINATION":53.159,"RA_OF_ASC_NODE":270.0173,"ARG_OF_PERICENTER":114.025,"MEAN_ANOMALY":246.09,"EPHEMERIS_TYPE":0,"CLASSIFICATION_TYPE":"U","NORAD_CAT_ID":60042,"ELEMENT_SET_NO":999,"REV_AT_EPOCH":8939,"BSTAR":-5.2456e-6,"MEAN_MOTION_DOT":-1.224e-5,"MEAN_MOTION_DDOT":0},{"OBJECT_NAME":"STARLINK-11086 [DTC]","OBJECT_ID":"2024-112F","EPOCH":"2025-12-26T01:04:50.927232","MEAN_MOTION":15.6970921,"ECCENTRICITY":0.0001183,"INCLINATION":53.1594,"RA_OF_ASC_NODE":269.3574,"ARG_OF_PERICENTER":92.3283,"MEAN_ANOMALY":267.787,"EPHEMERIS_TYPE":0,"CLASSIFICATION_TYPE":"U","NORAD_CAT_ID":60043,"ELEMENT_SET_NO":999,"REV_AT_EPOCH":8941,"BSTAR":5.567633e-6,"MEAN_MOTION_DOT":8.6e-7,"MEAN_MOTION_DDOT":0},{"OBJECT_NAME":"STARLINK-11148 [DTC]","OBJECT_ID":"2024-112G","EPOCH":"2025-12-26T04:01:09.637824","MEAN_MOTION":15.69696218,"ECCENTRICITY":0.00015291,"INCLINATION":53.1609,"RA_OF_ASC_NODE":268.6965,"ARG_OF_PERICENTER":78.0526,"MEAN_ANOMALY":282.0663,"EPHEMERIS_TYPE":0,"CLASSIFICATION_TYPE":"U","NORAD_CAT_ID":60044,"ELEMENT_SET_NO":999,"REV_AT_EPOCH":8943,"BSTAR":2.424842e-5,"MEAN_MOTION_DOT":2.348e-5,"MEAN_MOTION_DDOT":0},{"OBJECT_NAME":"STARLINK-11116 [DTC]","OBJECT_ID":"2024-112H","EPOCH":"2025-12-26T11:32:30.222240","MEAN_MOTION":15.69713475,"ECCENTRICITY":8.98e-5,"INCLINATION":53.1604,"RA_OF_ASC_NODE":267.0936,"ARG_OF_PERICENTER":112.0839,"MEAN_ANOMALY":248.0275,"EPHEMERIS_TYPE":0,"CLASSIFICATION_TYPE":"U","NORAD_CAT_ID":60045,"ELEMENT_SET_NO":999,"REV_AT_EPOCH":8948,"BSTAR":6.81075e-6,"MEAN_MOTION_DOT":2.37e-6,"MEAN_MOTION_DDOT":0},{"OBJECT_NAME":"STARLINK-11155 [DTC]","OBJECT_ID":"2024-112J","EPOCH":"2025-12-26T11:25:26.626368","MEAN_MOTION":15.69717698,"ECCENTRICITY":0.0001158,"INCLINATION":53.1594,"RA_OF_ASC_NODE":267.0627,"ARG_OF_PERICENTER":86.0742,"MEAN_ANOMALY":274.0408,"EPHEMERIS_TYPE":0,"CLASSIFICATION_TYPE":"U","NORAD_CAT_ID":60046,"ELEMENT_SET_NO":999,"REV_AT_EPOCH":8948,"BSTAR":-1.4228444e-5,"MEAN_MOTION_DOT":-2.313e-5,"MEAN_MOTION_DDOT":0},{"OBJECT_NAME":"STARLINK-11163 [DTC]","OBJECT_ID":"2024-112K","EPOCH":"2025-12-26T11:18:22.774752","MEAN_MOTION":15.69711458,"ECCENTRICITY":0.00011208,"INCLINATION":53.1588,"RA_OF_ASC_NODE":267.027,"ARG_OF_PERICENTER":91.7377,"MEAN_ANOMALY":268.3769,"EPHEMERIS_TYPE":0,"CLASSIFICATION_TYPE":"U","NORAD_CAT_ID":60047,"ELEMENT_SET_NO":999,"REV_AT_EPOCH":8948,"BSTAR":5.887804e-6,"MEAN_MOTION_DOT":1.25e-6,"MEAN_MOTION_DDOT":0}]
